BEIDOU-2 IGSO-5         
1 37948U 11073A   26183.72937883 -.00000128  00000+0  00000+0 0  9990
2 37948  47.6496 271.3544 0114527 222.0502 141.5350  1.00270596 53296
LUCH-5A                 
1 37951U 11074B   26192.45537913 -.00000052  00000+0  00000+0 0  9991
2 37951   8.8126  73.4502 0002558  59.0031 127.8149  1.00272643 53297
BEIDOU-2 G5             
1 38091U 12008A   26192.07758012  .00000062  00000+0  00000+0 0  9998
2 38091   3.6296  69.5473 0007359 270.3931  35.6687  1.00269208 52608
BEIDOU-2 M3             
1 38250U 12018A   26191.27788637 -.00000070  00000+0  00000+0 0  9993
2 38250  55.7367 304.0977 0020763 272.6276  87.1498  1.86230078 96370
BEIDOU-2 M4             
1 38251U 12018B   26191.21022507 -.00000069  00000+0  00000+0 0  9993
2 38251  55.6367 303.3120 0012086 272.7348  87.1429  1.86229687 96370
SES-5                   
1 38652U 12036A   26192.36183558  .00000040  00000+0  00000+0 0  9997
2 38652   0.0459 319.7123 0001910 150.4771 314.3154  1.00269357 44693
BEIDOU-2 M6             
1 38775U 12050B   26191.99378088 -.00000045  00000+0  00000+0 0  9997
2 38775  56.5649  62.1074 0013032   1.0822 358.9856  1.86230857 93757
GSAT-10                 
1 38779U 12051B   26192.51016895 -.00000159  00000+0  00000+0 0  9992
2 38779   0.1020 265.6162 0007424 187.1604 103.2730  1.00271624 50342
NAVSTAR 67 (USA 239)    
1 38833U 12053A   26192.24735517  .00000021  00000+0  00000+0 0  9991
2 38833  53.5891 142.6137 0181750  66.1505 295.7065  2.00567820 99920
GSAT0103 (GALILEO-FM3)  
1 38857U 12055A   26190.76599401 -.00000019  00000+0  00000+0 0  9992
2 38857  55.8193 100.9259 0003945 309.3641  50.6099  1.70473301 85397
BEIDOU-2 G6             
1 38953U 12059A   26192.08252015 -.00000172  00000+0  00000+0 0  9997
2 38953   4.4780  73.2667 0009064 326.7150   2.6673  1.00273656 50141
LUCH-5B                 
1 38977U 12061A   26192.41905103 -.00000140  00000+0  00000+0 0  9991
2 38977  10.5326  49.6349 0003806 144.8636 229.4311  1.00270884 49855
COSMOS 2485 [GLONASS-M] 
1 39155U 13019A   26190.90372010 -.00000024  00000+0  00000+0 0  9992
2 39155  65.4318  72.8427 0022762 231.6212 128.2346  2.13103398102760
IRNSS-1A                
1 39199U 13034A   26191.72043648  .00000047  00000+0  00000+0 0  9994
2 39199  35.7704  63.5328 0017567 183.4462 356.2994  1.00281941 47601
ASTRA 5B                
1 39617U 14011B   26192.49815978  .00000143  00000+0  00000+0 0  9990
2 39617   0.0852 298.0582 0001979 190.1979   3.9862  1.00272232 44914
COSMOS 2492 [GLONASS-M] 
1 39620U 14012A   26191.80109220 -.00000061  00000+0  00000+0 0  9995
2 39620  65.2825 313.1340 0010293 318.9623  40.9656  2.13103316 95747
IRNSS-1B                
1 39635U 14017A   26191.72026316  .00000149  00000+0  00000+0 0  9997
2 39635  28.8825 239.9967 0022328 191.5584 171.4704  1.00274378 45034
LUCH-5V                 
1 39727U 14023A   26192.08468683 -.00000267  00000+0  00000+0 0  9995
2 39727   5.1879  69.4921 0002056  75.1077 269.5638  1.00275436 44590
NAVSTAR 70 (USA 251)    
1 39741U 14026A   26191.39556233 -.00000080  00000+0  00000+0 0  9999
2 39741  56.4859 330.6145 0038119 325.9139  33.8410  2.00559176 89000
COSMOS 2500 [GLONASS-M] 
1 40001U 14032A   26190.09353818 -.00000056  00000+0  00000+0 0  9990
2 40001  65.2189 312.9376 0008037 189.2565 170.7378  2.13106082 93922
GSAT0201 (GALILEO 5)    
1 40128U 14050A   26191.05431484 -.00000022  00000+0  00000+0 0  9996
2 40128  48.8500 272.4979 1677815 180.2883 179.6634  1.85519753 78743
GSAT0202 (GALILEO 6)    
1 40129U 14050B   26192.38774231 -.00000014  00000+0  00000+0 0  9995
2 40129  48.8660 271.5287 1679178 181.0429 178.6225  1.85520566 80935
IRNSS-1C                
1 40269U 14061A   26192.21364205 -.00000162  00000+0  00000+0 0  9994
2 40269   6.5771  88.4746 0022129   5.0088 355.5803  1.00272976 42934
COSMOS 2501 [GLONASS-K] 
1 40315U 14075A   26191.29438447  .00000118  00000+0  00000+0 0  9998
2 40315  63.6181 189.5721 0022650 212.5784 147.3100  2.13101344 90348
GSAT0203 (GALILEO 7)    
1 40544U 15017A   26191.08953242 -.00000080  00000+0  00000+0 0  9990
2 40544  56.7788 340.9723 0002503 258.1316 101.8369  1.70476121 69590
GSAT0204 (GALILEO 8)    
1 40545U 15017B   26191.34538535 -.00000081  00000+0  00000+0 0  9995
2 40545  56.7851 340.9839 0002638 235.0424 124.9287  1.70475622 32649
